ONEWEB-0647             
1 56079U 23043AK  23318.65648201  .00000151  00000+0  36721-3 0  9996
2 56079  87.8991  87.4666 0001583  84.2409 275.8902 13.15546137 32107
ONEWEB-0651             
1 56080U 23043AL  23318.65171515  .00000143  00000+0  34616-3 0  9999
2 56080  87.8986  87.4396 0001901  88.6481 271.4867 13.15550368 33301
ONEWEB-0718             
1 56081U 23043AM  23318.64697086  .00000102  00000+0  23644-3 0  9999
2 56081  87.8918  87.4389 0001727 121.2474 238.8826 13.15550291 32116
ONEWEB-0561             
1 56710U 23068A   23318.64770425  .00000022  00000+0  19246-4 0  9999
2 56710  88.2900  97.8468 0001358  65.8428 294.2855 13.34313540 24514
ONEWEB-0668             
1 56711U 23068B   23318.59441550  .00002878  00000+0  38762-3 0  9992
2 56711  86.7244  67.4742 0013481 325.3252  34.7089 14.78808220 26461
ONEWEB-0676             
1 56712U 23068C   23318.33964307  .00002814  00000+0  37995-3 0  9992
2 56712  86.7200  67.4962 0013602 328.3621  31.6781 14.78687537 26423
ONEWEB-0677             
1 56713U 23068D   23318.40558302  .00000139  00000+0  25145-3 0  9997
2 56713  88.3236  95.8846 0002214  85.6375 274.5020 13.34762708 24666
