<?xml version="1.0" encoding="UTF-8"?>
<ndm xmlns:xsi="http://www.w3.org/2001/XMLSchema-instance" xsi:noNamespaceSchemaLocation="https://sanaregistry.org/r/ndmxml_unqualified/ndmxml-2.0.0-master-2.0.xsd">
<omm id="CCSDS_OMM_VERS" version="2.0">
<header><CREATION_DATE/><ORIGINATOR/></header><body><segment><metadata><OBJECT_NAME>ONEWEB-0647</OBJECT_NAME><OBJECT_ID>2023-043AK</OBJECT_ID><CENTER_NAME>EARTH</CENTER_NAME><REF_FRAME>TEME</REF_FRAME><TIME_SYSTEM>UTC</TIME_SYSTEM><MEAN_ELEMENT_THEORY>SGP4</MEAN_ELEMENT_THEORY></metadata><data><meanElements><EPOCH>2023-11-14T15:45:20.045664</EPOCH><MEAN_MOTION>13.15546137</MEAN_MOTION><ECCENTRICITY>.0001583</ECCENTRICITY><INCLINATION>87.8991</INCLINATION><RA_OF_ASC_NODE>87.4666</RA_OF_ASC_NODE><ARG_OF_PERICENTER>84.2409</ARG_OF_PERICENTER><MEAN_ANOMALY>275.8902</MEAN_ANOMALY></meanElements><tleParameters><EPHEMERIS_TYPE>0</EPHEMERIS_TYPE><CLASSIFICATION_TYPE>U</CLASSIFICATION_TYPE><NORAD_CAT_ID>56079</NORAD_CAT_ID><ELEMENT_SET_NO>999</ELEMENT_SET_NO><REV_AT_EPOCH>3210</REV_AT_EPOCH><BSTAR>.36721E-3</BSTAR><MEAN_MOTION_DOT>.151E-5</MEAN_MOTION_DOT><MEAN_MOTION_DDOT>0</MEAN_MOTION_DDOT></tleParameters></data></segment></body></omm>
<omm id="CCSDS_OMM_VERS" version="2.0">
<header><CREATION_DATE/><ORIGINATOR/></header><body><segment><metadata><OBJECT_NAME>ONEWEB-0651</OBJECT_NAME><OBJECT_ID>2023-043AL</OBJECT_ID><CENTER_NAME>EARTH</CENTER_NAME><REF_FRAME>TEME</REF_FRAME><TIME_SYSTEM>UTC</TIME_SYSTEM><MEAN_ELEMENT_THEORY>SGP4</MEAN_ELEMENT_THEORY></metadata><data><meanElements><EPOCH>2023-11-14T15:38:28.188960</EPOCH><MEAN_MOTION>13.15550368</MEAN_MOTION><ECCENTRICITY>.0001901</ECCENTRICITY><INCLINATION>87.8986</INCLINATION><RA_OF_ASC_NODE>87.4396</RA_OF_ASC_NODE><ARG_OF_PERICENTER>88.6481</ARG_OF_PERICENTER><MEAN_ANOMALY>271.4867</MEAN_ANOMALY></meanElements><tleParameters><EPHEMERIS_TYPE>0</EPHEMERIS_TYPE><CLASSIFICATION_TYPE>U</CLASSIFICATION_TYPE><NORAD_CAT_ID>56080</NORAD_CAT_ID><ELEMENT_SET_NO>999</ELEMENT_SET_NO><REV_AT_EPOCH>3330</REV_AT_EPOCH><BSTAR>.34616E-3</BSTAR><MEAN_MOTION_DOT>.143E-5</MEAN_MOTION_DOT><MEAN_MOTION_DDOT>0</MEAN_MOTION_DDOT></tleParameters></data></segment></body></omm>
<omm id="CCSDS_OMM_VERS" version="2.0">
<header><CREATION_DATE/><ORIGINATOR/></header><body><segment><metadata><OBJECT_NAME>ONEWEB-0718</OBJECT_NAME><OBJECT_ID>2023-043AM</OBJECT_ID><CENTER_NAME>EARTH</CENTER_NAME><REF_FRAME>TEME</REF_FRAME><TIME_SYSTEM>UTC</TIME_SYSTEM><MEAN_ELEMENT_THEORY>SGP4</MEAN_ELEMENT_THEORY></metadata><data><meanElements><EPOCH>2023-11-14T15:31:38.282304</EPOCH><MEAN_MOTION>13.15550291</MEAN_MOTION><ECCENTRICITY>.0001727</ECCENTRICITY><INCLINATION>87.8918</INCLINATION><RA_OF_ASC_NODE>87.4389</RA_OF_ASC_NODE><ARG_OF_PERICENTER>121.2474</ARG_OF_PERICENTER><MEAN_ANOMALY>238.8826</MEAN_ANOMALY></meanElements><tleParameters><EPHEMERIS_TYPE>0</EPHEMERIS_TYPE><CLASSIFICATION_TYPE>U</CLASSIFICATION_TYPE><NORAD_CAT_ID>56081</NORAD_CAT_ID><ELEMENT_SET_NO>999</ELEMENT_SET_NO><REV_AT_EPOCH>3211</REV_AT_EPOCH><BSTAR>.23644E-3</BSTAR><MEAN_MOTION_DOT>.102E-5</MEAN_MOTION_DOT><MEAN_MOTION_DDOT>0</MEAN_MOTION_DDOT></tleParameters></data></segment></body></omm>
<omm id="CCSDS_OMM_VERS" version="2.0">
<header><CREATION_DATE/><ORIGINATOR/></header><body><segment><metadata><OBJECT_NAME>ONEWEB-0561</OBJECT_NAME><OBJECT_ID>2023-068A</OBJECT_ID><CENTER_NAME>EARTH</CENTER_NAME><REF_FRAME>TEME</REF_FRAME><TIME_SYSTEM>UTC</TIME_SYSTEM><MEAN_ELEMENT_THEORY>SGP4</MEAN_ELEMENT_THEORY></metadata><data><meanElements><EPOCH>2023-11-14T15:32:41.647200</EPOCH><MEAN_MOTION>13.34313540</MEAN_MOTION><ECCENTRICITY>.0001358</ECCENTRICITY><INCLINATION>88.2900</INCLINATION><RA_OF_ASC_NODE>97.8468</RA_OF_ASC_NODE><ARG_OF_PERICENTER>65.8428</ARG_OF_PERICENTER><MEAN_ANOMALY>294.2855</MEAN_ANOMALY></meanElements><tleParameters><EPHEMERIS_TYPE>0</EPHEMERIS_TYPE><CLASSIFICATION_TYPE>U</CLASSIFICATION_TYPE><NORAD_CAT_ID>56710</NORAD_CAT_ID><ELEMENT_SET_NO>999</ELEMENT_SET_NO><REV_AT_EPOCH>2451</REV_AT_EPOCH><BSTAR>.19246E-4</BSTAR><MEAN_MOTION_DOT>.22E-6</MEAN_MOTION_DOT><MEAN_MOTION_DDOT>0</MEAN_MOTION_DDOT></tleParameters></data></segment></body></omm>
<omm id="CCSDS_OMM_VERS" version="2.0">
<header><CREATION_DATE/><ORIGINATOR/></header><body><segment><metadata><OBJECT_NAME>ONEWEB-0668</OBJECT_NAME><OBJECT_ID>2023-068B</OBJECT_ID><CENTER_NAME>EARTH</CENTER_NAME><REF_FRAME>TEME</REF_FRAME><TIME_SYSTEM>UTC</TIME_SYSTEM><MEAN_ELEMENT_THEORY>SGP4</MEAN_ELEMENT_THEORY></metadata><data><meanElements><EPOCH>2023-11-14T14:15:57.499200</EPOCH><MEAN_MOTION>14.78808220</MEAN_MOTION><ECCENTRICITY>.0013481</ECCENTRICITY><INCLINATION>86.7244</INCLINATION><RA_OF_ASC_NODE>67.4742</RA_OF_ASC_NODE><ARG_OF_PERICENTER>325.3252</ARG_OF_PERICENTER><MEAN_ANOMALY>34.7089</MEAN_ANOMALY></meanElements><tleParameters><EPHEMERIS_TYPE>0</EPHEMERIS_TYPE><CLASSIFICATION_TYPE>U</CLASSIFICATION_TYPE><NORAD_CAT_ID>56711</NORAD_CAT_ID><ELEMENT_SET_NO>999</ELEMENT_SET_NO><REV_AT_EPOCH>2646</REV_AT_EPOCH><BSTAR>.38762E-3</BSTAR><MEAN_MOTION_DOT>.2878E-4</MEAN_MOTION_DOT><MEAN_MOTION_DDOT>0</MEAN_MOTION_DDOT></tleParameters></data></segment></body></omm>
<omm id="CCSDS_OMM_VERS" version="2.0">
<header><CREATION_DATE/><ORIGINATOR/></header><body><segment><metadata><OBJECT_NAME>ONEWEB-0676</OBJECT_NAME><OBJECT_ID>2023-068C</OBJECT_ID><CENTER_NAME>EARTH</CENTER_NAME><REF_FRAME>TEME</REF_FRAME><TIME_SYSTEM>UTC</TIME_SYSTEM><MEAN_ELEMENT_THEORY>SGP4</MEAN_ELEMENT_THEORY></metadata><data><meanElements><EPOCH>2023-11-14T08:09:05.161248</EPOCH><MEAN_MOTION>14.78687537</MEAN_MOTION><ECCENTRICITY>.0013602</ECCENTRICITY><INCLINATION>86.7200</INCLINATION><RA_OF_ASC_NODE>67.4962</RA_OF_ASC_NODE><ARG_OF_PERICENTER>328.3621</ARG_OF_PERICENTER><MEAN_ANOMALY>31.6781</MEAN_ANOMALY></meanElements><tleParameters><EPHEMERIS_TYPE>0</EPHEMERIS_TYPE><CLASSIFICATION_TYPE>U</CLASSIFICATION_TYPE><NORAD_CAT_ID>56712</NORAD_CAT_ID><ELEMENT_SET_NO>999</ELEMENT_SET_NO><REV_AT_EPOCH>2642</REV_AT_EPOCH><BSTAR>.37995E-3</BSTAR><MEAN_MOTION_DOT>.2814E-4</MEAN_MOTION_DOT><MEAN_MOTION_DDOT>0</MEAN_MOTION_DDOT></tleParameters></data></segment></body></omm>
<omm id="CCSDS_OMM_VERS" version="2.0">
<header><CREATION_DATE/><ORIGINATOR/></header><body><segment><metadata><OBJECT_NAME>ONEWEB-0677</OBJECT_NAME><OBJECT_ID>2023-068D</OBJECT_ID><CENTER_NAME>EARTH</CENTER_NAME><REF_FRAME>TEME</REF_FRAME><TIME_SYSTEM>UTC</TIME_SYSTEM><MEAN_ELEMENT_THEORY>SGP4</MEAN_ELEMENT_THEORY></metadata><data><meanElements><EPOCH>2023-11-14T09:44:02.372928</EPOCH><MEAN_MOTION>13.34762708</MEAN_MOTION><ECCENTRICITY>.0002214</ECCENTRICITY><INCLINATION>88.3236</INCLINATION><RA_OF_ASC_NODE>95.8846</RA_OF_ASC_NODE><ARG_OF_PERICENTER>85.6375</ARG_OF_PERICENTER><MEAN_ANOMALY>274.5020</MEAN_ANOMALY></meanElements><tleParameters><EPHEMERIS_TYPE>0</EPHEMERIS_TYPE><CLASSIFICATION_TYPE>U</CLASSIFICATION_TYPE><NORAD_CAT_ID>56713</NORAD_CAT_ID><ELEMENT_SET_NO>999</ELEMENT_SET_NO><REV_AT_EPOCH>2466</REV_AT_EPOCH><BSTAR>.25145E-3</BSTAR><MEAN_MOTION_DOT>.139E-5</MEAN_MOTION_DOT><MEAN_MOTION_DDOT>0</MEAN_MOTION_DDOT></tleParameters></data></segment></body></omm>

</ndm>
